ORBCOMM FM06            
1 25118U 97084G   26167.40423225  .00001010  00000+0  31096-3 0  9992
2 25118  45.0145  56.4813 0001245 329.5459 201.1029 14.47560986494275
ORBCOMM FM04            
1 25159U 98007C   26167.76739626  .00000675  00000+0  27646-3 0  9999
2 25159 107.9627 168.5553 0041342 325.4883  34.3576 14.35740619476539
ORBCOMM FM19            
1 25415U 98046C   26167.51731578  .00000561  00000+0  22356-3 0  9995
2 25415  44.9932 246.7461 0004570 278.9196  95.4071 14.39494518456681
ORBCOMM FM20            
1 25416U 98046D   26167.52666176  .00000443  00000+0  19152-3 0  9997
2 25416  44.9940 254.6171 0002249 248.3440 111.7169 14.38065661456694
ORBCOMM FM27            
1 25481U 98053G   26167.77101470  .00000720  00000+0  27616-3 0  9997
2 25481  45.0063 337.3307 0000983 192.4981 167.5843 14.39140600450179
ORBCOMM FM32            
1 25982U 99065C   26167.73430241  .00000343  00000+0  16182-3 0  9991
2 25982  45.0139 175.3840 0004505  32.3799 327.7325 14.37129394387027
ORBCOMM FM109           
1 40086U 14040A   26167.48191738  .00000333  00000+0  10671-3 0  9996
2 40086  47.0031  94.8210 0001890 244.7022 115.3669 14.58844120634245
ORBCOMM FM110           
1 41182U 15081D   26167.28208698  .00000587  00000+0  16038-3 0  9996
2 41182  47.0033   5.7226 0002528  70.1353 289.9805 14.58879506557497
ORBCOMM FM118           
1 41183U 15081E   26165.94661219  .00002342  00000+0  53124-3 0  9998
2 41183  47.0047  12.3690 0002883  17.4423 342.6561 14.58877028557402
ORBCOMM FM112           
1 41184U 15081F   26167.59485463  .00000484  00000+0  13859-3 0  9993
2 41184  46.9989 273.0484 0003695 215.2592 144.8050 14.58903652558869
ORBCOMM FM113           
1 41185U 15081G   26167.57146101  .00000284  00000+0  96374-4 0  9997
2 41185  47.0011 273.5350 0002239 221.9238 138.1476 14.58857904558843
ORBCOMM FM108           
1 41187U 15081J   26167.73932123  .00000277  00000+0  94753-4 0  9995
2 41187  47.0030 184.3149 0002928 219.0523 141.0151 14.58869631560016
ORBCOMM FM117           
1 41188U 15081K   26167.77331926  .00000187  00000+0  75792-4 0  9996
2 41188  46.9995 182.7879 0003453 223.2090 136.8525 14.58864783560062
ORBCOMM FM116           
1 41189U 15081L   26167.75377462  .00000488  00000+0  13931-3 0  9990
2 41189  47.0020 272.6710 0000582  62.4502 297.6443 14.58882754558877
